STARLINK-1350
1 15535C 20025E   21326.16736530  .00002889  00000-0  19359-3 0  3267
2 15535  53.0543 308.0013 0001706  65.2137 350.2749 15.06387600    14
